GLOBALSTAR M045         
1 25676U 99019A   24334.52503410 -.00000034  00000+0  52606-3 0  9999
2 25676  51.9938 154.3452 0001249 112.3045 282.1242 12.27052594169126
GLOBALSTAR M019         
1 25677U 99019B   24334.19617500 -.00000128  00000+0 -39344-3 0  9998
2 25677  51.9883 271.5749 0000880 320.2736 203.9157 12.13866045161042
GLOBALSTAR M044         
1 25678U 99019C   24334.33814010 -.00000094  00000+0 -14654-3 0  9999
2 25678  51.9949 197.5405 0007252  25.2342 146.3838 11.90244501147509
GLOBALSTAR M042         
1 25679U 99019D   24333.83673407 -.00000061  00000+0  28930-3 0  9992
2 25679  52.0014 256.5450 0002056 248.4894 149.0535 12.22073842160760
GLOBALSTAR M025         
1 25770U 99031A   24333.76351738 -.00000048  00000+0  60202-3 0  9993
2 25770  51.9820 263.5673 0001217 135.7814 235.6023 11.22557151459201
GLOBALSTAR M049         
1 25771U 99031B   24333.91230415 -.00000143  00000+0 -26989-2 0  9999
2 25771  51.9884 287.9204 0003926  39.2368 320.8712 11.12113889 95149
GLOBALSTAR M047         
1 25772U 99031C   24333.86735822 -.00000056  00000+0  37191-3 0  9996
2 25772  51.9849 304.1307 0016190 280.5294  79.3688 11.31925195448426
GLOBALSTAR M052         
1 25773U 99031D   24333.71437123 -.00000110  00000+0 -14681-2 0  9994
2 25773  51.9899  39.8627 0002820 189.7799 316.3331 11.15055482456146
